[{"OBJECT_NAME":"ONEWEB-0174","OBJECT_ID":"2021-025AG","EPOCH":"2025-12-27T06:36:04.314816","MEAN_MOTION":13.13469453,"ECCENTRICITY":0.00016941,"INCLINATION":87.8976,"RA_OF_ASC_NODE":354.3916,"ARG_OF_PERICENTER":92.4914,"MEAN_ANOMALY":267.641,"EPHEMERIS_TYPE":0,"CLASSIFICATION_TYPE":"U","NORAD_CAT_ID":48072,"ELEMENT_SET_NO":999,"REV_AT_EPOCH":23126,"BSTAR":0.00057865156,"MEAN_MOTION_DOT":2.24e-6,"MEAN_MOTION_DDOT":0},{"OBJECT_NAME":"ONEWEB-0175","OBJECT_ID":"2021-025AH","EPOCH":"2025-12-27T00:01:09.145056","MEAN_MOTION":13.13467556,"ECCENTRICITY":0.0001747,"INCLINATION":87.8985,"RA_OF_ASC_NODE":354.4164,"ARG_OF_PERICENTER":76.4007,"MEAN_ANOMALY":283.7317,"EPHEMERIS_TYPE":0,"CLASSIFICATION_TYPE":"U","NORAD_CAT_ID":48073,"ELEMENT_SET_NO":999,"REV_AT_EPOCH":23088,"BSTAR":-0.00017953,"MEAN_MOTION_DOT":-5.3e-7,"MEAN_MOTION_DDOT":0},{"OBJECT_NAME":"ONEWEB-0177","OBJECT_ID":"2021-025AJ","EPOCH":"2025-12-27T05:47:18.590496","MEAN_MOTION":13.13468461,"ECCENTRICITY":0.00016023,"INCLINATION":87.8986,"RA_OF_ASC_NODE":354.3884,"ARG_OF_PERICENTER":92.1809,"MEAN_ANOMALY":267.9504,"EPHEMERIS_TYPE":0,"CLASSIFICATION_TYPE":"U","NORAD_CAT_ID":48074,"ELEMENT_SET_NO":999,"REV_AT_EPOCH":23110,"BSTAR":-0.00060507144,"MEAN_MOTION_DOT":-2.08e-6,"MEAN_MOTION_DDOT":0},{"OBJECT_NAME":"ONEWEB-0178","OBJECT_ID":"2021-025AK","EPOCH":"2025-12-27T06:14:19.264416","MEAN_MOTION":13.13469274,"ECCENTRICITY":0.00015252,"INCLINATION":87.8976,"RA_OF_ASC_NODE":354.4242,"ARG_OF_PERICENTER":80.9075,"MEAN_ANOMALY":279.2227,"EPHEMERIS_TYPE":0,"CLASSIFICATION_TYPE":"U","NORAD_CAT_ID":48075,"ELEMENT_SET_NO":999,"REV_AT_EPOCH":23115,"BSTAR":-0.00026470005,"MEAN_MOTION_DOT":-8.4e-7,"MEAN_MOTION_DDOT":0},{"OBJECT_NAME":"ONEWEB-0108","OBJECT_ID":"2021-025AL","EPOCH":"2025-12-27T01:36:14.613120","MEAN_MOTION":13.13468901,"ECCENTRICITY":0.00019687,"INCLINATION":87.8985,"RA_OF_ASC_NODE":354.4124,"ARG_OF_PERICENTER":91.1004,"MEAN_ANOMALY":269.035,"EPHEMERIS_TYPE":0,"CLASSIFICATION_TYPE":"U","NORAD_CAT_ID":48076,"ELEMENT_SET_NO":999,"REV_AT_EPOCH":23105,"BSTAR":0.00040005589,"MEAN_MOTION_DOT":1.59e-6,"MEAN_MOTION_DDOT":0},{"OBJECT_NAME":"ONEWEB-0169","OBJECT_ID":"2021-025AM","EPOCH":"2025-12-26T22:43:07.968000","MEAN_MOTION":13.13468266,"ECCENTRICITY":0.0001944,"INCLINATION":87.8981,"RA_OF_ASC_NODE":354.4567,"ARG_OF_PERICENTER":92.1416,"MEAN_ANOMALY":267.9935,"EPHEMERIS_TYPE":0,"CLASSIFICATION_TYPE":"U","NORAD_CAT_ID":48077,"ELEMENT_SET_NO":999,"REV_AT_EPOCH":22969,"BSTAR":-0.00050092,"MEAN_MOTION_DOT":-1.7e-6,"MEAN_MOTION_DDOT":0},{"OBJECT_NAME":"ONEWEB-0176","OBJECT_ID":"2021-031A","EPOCH":"2025-12-27T07:19:14.878848","MEAN_MOTION":13.14501286,"ECCENTRICITY":0.00017223,"INCLINATION":87.9009,"RA_OF_ASC_NODE":323.9465,"ARG_OF_PERICENTER":80.2824,"MEAN_ANOMALY":279.85,"EPHEMERIS_TYPE":0,"CLASSIFICATION_TYPE":"U","NORAD_CAT_ID":48210,"ELEMENT_SET_NO":999,"REV_AT_EPOCH":22573,"BSTAR":-0.00014846881,"MEAN_MOTION_DOT":-4.2e-7,"MEAN_MOTION_DDOT":0},{"OBJECT_NAME":"ONEWEB-0184","OBJECT_ID":"2021-031B","EPOCH":"2025-12-27T06:40:25.601376","MEAN_MOTION":13.14501295,"ECCENTRICITY":0.00017183,"INCLINATION":87.9015,"RA_OF_ASC_NODE":323.9342,"ARG_OF_PERICENTER":53.0208,"MEAN_ANOMALY":307.1078,"EPHEMERIS_TYPE":0,"CLASSIFICATION_TYPE":"U","NORAD_CAT_ID":48211,"ELEMENT_SET_NO":999,"REV_AT_EPOCH":22570,"BSTAR":0.00043141,"MEAN_MOTION_DOT":1.73e-6,"MEAN_MOTION_DDOT":0},{"OBJECT_NAME":"ONEWEB-0179","OBJECT_ID":"2021-031C","EPOCH":"2025-12-26T22:39:44.890848","MEAN_MOTION":13.14503752,"ECCENTRICITY":0.0001664,"INCLINATION":87.9007,"RA_OF_ASC_NODE":324.0083,"ARG_OF_PERICENTER":86.8636,"MEAN_ANOMALY":273.2684,"EPHEMERIS_TYPE":0,"CLASSIFICATION_TYPE":"U","NORAD_CAT_ID":48212,"ELEMENT_SET_NO":999,"REV_AT_EPOCH":22570,"BSTAR":-0.00018708,"MEAN_MOTION_DOT":-5.7e-7,"MEAN_MOTION_DDOT":0},{"OBJECT_NAME":"ONEWEB-0180","OBJECT_ID":"2021-031D","EPOCH":"2025-12-27T04:55:23.101536","MEAN_MOTION":13.14501831,"ECCENTRICITY":0.00014465,"INCLINATION":87.9018,"RA_OF_ASC_NODE":323.9543,"ARG_OF_PERICENTER":78.5805,"MEAN_ANOMALY":281.5487,"EPHEMERIS_TYPE":0,"CLASSIFICATION_TYPE":"U","NORAD_CAT_ID":48213,"ELEMENT_SET_NO":999,"REV_AT_EPOCH":22562,"BSTAR":0.00071869945,"MEAN_MOTION_DOT":2.79e-6,"MEAN_MOTION_DDOT":0},{"OBJECT_NAME":"ONEWEB-0218","OBJECT_ID":"2021-031E","EPOCH":"2025-12-27T07:16:57.488160","MEAN_MOTION":13.14503705,"ECCENTRICITY":0.00014115,"INCLINATION":87.9016,"RA_OF_ASC_NODE":323.9354,"ARG_OF_PERICENTER":51.3438,"MEAN_ANOMALY":308.7818,"EPHEMERIS_TYPE":0,"CLASSIFICATION_TYPE":"U","NORAD_CAT_ID":48214,"ELEMENT_SET_NO":999,"REV_AT_EPOCH":22579,"BSTAR":-0.00023656938,"MEAN_MOTION_DOT":-7.5e-7,"MEAN_MOTION_DDOT":0},{"OBJECT_NAME":"ONEWEB-0209","OBJECT_ID":"2021-031F","EPOCH":"2025-12-27T07:00:58.876704","MEAN_MOTION":13.14501685,"ECCENTRICITY":0.00016149,"INCLINATION":87.9009,"RA_OF_ASC_NODE":323.9724,"ARG_OF_PERICENTER":86.6278,"MEAN_ANOMALY":273.5037,"EPHEMERIS_TYPE":0,"CLASSIFICATION_TYPE":"U","NORAD_CAT_ID":48215,"ELEMENT_SET_NO":999,"REV_AT_EPOCH":22579,"BSTAR":0.00026692515,"MEAN_MOTION_DOT":1.12e-6,"MEAN_MOTION_DDOT":0},{"OBJECT_NAME":"ONEWEB-0198","OBJECT_ID":"2021-031G","EPOCH":"2025-12-27T06:38:20.137344","MEAN_MOTION":13.14500995,"ECCENTRICITY":0.00014512,"INCLINATION":87.9001,"RA_OF_ASC_NODE":323.9727,"ARG_OF_PERICENTER":72.6993,"MEAN_ANOMALY":287.4296,"EPHEMERIS_TYPE":0,"CLASSIFICATION_TYPE":"U","NORAD_CAT_ID":48216,"ELEMENT_SET_NO":999,"REV_AT_EPOCH":22590,"BSTAR":0.00059294813,"MEAN_MOTION_DOT":2.33e-6,"MEAN_MOTION_DDOT":0},{"OBJECT_NAME":"ONEWEB-0189","OBJECT_ID":"2021-031H","EPOCH":"2025-12-27T06:56:23.983008","MEAN_MOTION":13.14501207,"ECCENTRICITY":0.00014653,"INCLINATION":87.9011,"RA_OF_ASC_NODE":323.9446,"ARG_OF_PERICENTER":76.5607,"MEAN_ANOMALY":283.5686,"EPHEMERIS_TYPE":0,"CLASSIFICATION_TYPE":"U","NORAD_CAT_ID":48217,"ELEMENT_SET_NO":999,"REV_AT_EPOCH":22564,"BSTAR":0.00040392244,"MEAN_MOTION_DOT":1.63e-6,"MEAN_MOTION_DDOT":0},{"OBJECT_NAME":"ONEWEB-0196","OBJECT_ID":"2021-031J","EPOCH":"2025-12-27T06:24:26.283168","MEAN_MOTION":13.14503783,"ECCENTRICITY":0.00016001,"INCLINATION":87.9005,"RA_OF_ASC_NODE":323.9623,"ARG_OF_PERICENTER":81.4154,"MEAN_ANOMALY":278.7157,"EPHEMERIS_TYPE":0,"CLASSIFICATION_TYPE":"U","NORAD_CAT_ID":48218,"ELEMENT_SET_NO":999,"REV_AT_EPOCH":22564,"BSTAR":0.00024667631,"MEAN_MOTION_DOT":1.04e-6,"MEAN_MOTION_DDOT":0},{"OBJECT_NAME":"ONEWEB-0183","OBJECT_ID":"2021-031K","EPOCH":"2025-12-26T22:29:27.938688","MEAN_MOTION":13.1450159,"ECCENTRICITY":0.0001849,"INCLINATION":87.8995,"RA_OF_ASC_NODE":324.0313,"ARG_OF_PERICENTER":88.4653,"MEAN_ANOMALY":271.6688,"EPHEMERIS_TYPE":0,"CLASSIFICATION_TYPE":"U","NORAD_CAT_ID":48219,"ELEMENT_SET_NO":999,"REV_AT_EPOCH":22569,"BSTAR":-0.00050702,"MEAN_MOTION_DOT":-1.75e-6,"MEAN_MOTION_DDOT":0},{"OBJECT_NAME":"ONEWEB-0185","OBJECT_ID":"2021-031L","EPOCH":"2025-12-27T06:25:34.413024","MEAN_MOTION":13.14504039,"ECCENTRICITY":0.00016161,"INCLINATION":87.901,"RA_OF_ASC_NODE":323.9443,"ARG_OF_PERICENTER":95.0861,"MEAN_ANOMALY":265.0453,"EPHEMERIS_TYPE":0,"CLASSIFICATION_TYPE":"U","NORAD_CAT_ID":48220,"ELEMENT_SET_NO":999,"REV_AT_EPOCH":22566,"BSTAR":0.00046106604,"MEAN_MOTION_DOT":1.84e-6,"MEAN_MOTION_DDOT":0},{"OBJECT_NAME":"ONEWEB-0187","OBJECT_ID":"2021-031M","EPOCH":"2025-12-27T04:07:13.810368","MEAN_MOTION":13.14501599,"ECCENTRICITY":0.00015527,"INCLINATION":87.9001,"RA_OF_ASC_NODE":324.0025,"ARG_OF_PERICENTER":86.1039,"MEAN_ANOMALY":274.0269,"EPHEMERIS_TYPE":0,"CLASSIFICATION_TYPE":"U","NORAD_CAT_ID":48221,"ELEMENT_SET_NO":999,"REV_AT_EPOCH":22566,"BSTAR":-0.0003830029,"MEAN_MOTION_DOT":-1.29e-6,"MEAN_MOTION_DDOT":0},{"OBJECT_NAME":"ONEWEB-0192","OBJECT_ID":"2021-031N","EPOCH":"2025-12-27T07:03:15.995232","MEAN_MOTION":13.14501925,"ECCENTRICITY":0.00017228,"INCLINATION":87.8999,"RA_OF_ASC_NODE":323.9681,"ARG_OF_PERICENTER":79.4133,"MEAN_ANOMALY":280.719,"EPHEMERIS_TYPE":0,"CLASSIFICATION_TYPE":"U","NORAD_CAT_ID":48222,"ELEMENT_SET_NO":999,"REV_AT_EPOCH":22559,"BSTAR":0.00011196189,"MEAN_MOTION_DOT":5.4e-7,"MEAN_MOTION_DDOT":0},{"OBJECT_NAME":"ONEWEB-0219","OBJECT_ID":"2021-031P","EPOCH":"2025-12-27T06:33:34.229376","MEAN_MOTION":13.14501318,"ECCENTRICITY":0.00015927,"INCLINATION":87.9005,"RA_OF_ASC_NODE":323.9513,"ARG_OF_PERICENTER":88.1601,"MEAN_ANOMALY":271.9711,"EPHEMERIS_TYPE":0,"CLASSIFICATION_TYPE":"U","NORAD_CAT_ID":48223,"ELEMENT_SET_NO":999,"REV_AT_EPOCH":22579,"BSTAR":0.00074502953,"MEAN_MOTION_DOT":2.89e-6,"MEAN_MOTION_DDOT":0},{"OBJECT_NAME":"ONEWEB-0202","OBJECT_ID":"2021-031Q","EPOCH":"2025-12-26T22:47:43.826784","MEAN_MOTION":13.14501927,"ECCENTRICITY":0.0001306,"INCLINATION":87.8997,"RA_OF_ASC_NODE":324.0269,"ARG_OF_PERICENTER":61.1238,"MEAN_ANOMALY":299.0023,"EPHEMERIS_TYPE":0,"CLASSIFICATION_TYPE":"U","NORAD_CAT_ID":48224,"ELEMENT_SET_NO":999,"REV_AT_EPOCH":22573,"BSTAR":-0.00019483,"MEAN_MOTION_DOT":-5.9e-7,"MEAN_MOTION_DDOT":0},{"OBJECT_NAME":"ONEWEB-0204","OBJECT_ID":"2021-031R","EPOCH":"2025-12-27T06:55:17.308128","MEAN_MOTION":13.14492515,"ECCENTRICITY":0.00020348,"INCLINATION":87.9009,"RA_OF_ASC_NODE":323.9504,"ARG_OF_PERICENTER":92.6026,"MEAN_ANOMALY":267.5337,"EPHEMERIS_TYPE":0,"CLASSIFICATION_TYPE":"U","NORAD_CAT_ID":48225,"ELEMENT_SET_NO":999,"REV_AT_EPOCH":22567,"BSTAR":0.00096469566,"MEAN_MOTION_DOT":3.7e-6,"MEAN_MOTION_DDOT":0},{"OBJECT_NAME":"ONEWEB-0205","OBJECT_ID":"2021-031S","EPOCH":"2025-12-27T06:19:52.243104","MEAN_MOTION":13.14501718,"ECCENTRICITY":0.00016431,"INCLINATION":87.9003,"RA_OF_ASC_NODE":323.9482,"ARG_OF_PERICENTER":86.5744,"MEAN_ANOMALY":273.5573,"EPHEMERIS_TYPE":0,"CLASSIFICATION_TYPE":"U","NORAD_CAT_ID":48226,"ELEMENT_SET_NO":999,"REV_AT_EPOCH":22568,"BSTAR":0.0004122374,"MEAN_MOTION_DOT":1.66e-6,"MEAN_MOTION_DDOT":0}]
